0 FENGYUN 1C DEB
1 31659U 99025CBR 13281.34897142  .00005307  00000-0  10223-2 0  3340
2 31659 099.0749 100.6699 0212609 161.5812 320.5911 14.50559602338977
0 FENGYUN 1C DEB
1 31659U 99025CBR 13282.71705039  .00007028  00000-0  13488-2 0  3354
2 31659 099.0750 102.1454 0212537 157.4854 264.7701 14.50584333339173
0 FENGYUN 1C DEB
1 31659U 99025CBR 13286.31563777  .00006012  00000-0  11544-2 0  3370
2 31659 099.0742 106.0260 0212581 146.7252 337.2424 14.50627878339691
0 FENGYUN 1C DEB
1 31659U 99025CBR 13288.31573267  .00009432  00000-0  18028-2 0  3381
2 31659 099.0729 108.1840 0212452 140.7328 342.3636 14.50653876339989
0 FENGYUN 1C DEB
1 31659U 99025CBR 13290.31665628  .00008580  00000-0  16402-2 0  3395
2 31659 099.0728 110.3420 0212423 134.7570 352.0092 14.50682745340272
0 FENGYUN 1C DEB
1 31659U 99025CBR 13291.75359179  .00007011  00000-0  13420-2 0  3402
2 31659 099.0725 111.8918 0212463 130.4723 296.3897 14.50704069340484
0 FENGYUN 1C DEB
1 31659U 99025CBR 13293.75401889  .00007286  00000-0  13934-2 0  3415
2 31659 099.0732 114.0490 0212446 124.4915 303.7722 14.50727174340773
